#aV2007 12 24  0  0   .00000000      96 DD+AD WGS84 FIT  NGA
## 1459  86400.00000000   900.00000000 54458  .0000000000000
+   31     1  2  3  4  5  6  7  8  9 10 11 12 13 14 15 16 17
+         18 19 20 21 22 23 24 25 26 27 28 30 31 32  0  0  0
+          0  0  0  0  0  0  0  0  0  0  0  0  0  0  0  0  0
+          0  0  0  0  0  0  0  0  0  0  0  0  0  0  0  0  0
+          0  0  0  0  0  0  0  0  0  0  0  0  0  0  0  0  0
++         0  0  0  0  0  0  0  0  0  0  0  0  0  0  0  0  0
++         0  0  0  0  0  0  0  0  0  0  0  0  0  0  0  0  0
++         0  0  0  0  0  0  0  0  0  0  0  0  0  0  0  0  0
++         0  0  0  0  0  0  0  0  0  0  0  0  0  0  0  0  0
++         0  0  0  0  0  0  0  0  0  0  0  0  0  0  0  0  0
%c cc cc ccc ccc cccc cccc cccc cccc ccccc ccccc ccccc ccccc
%c cc cc ccc ccc cccc cccc cccc cccc ccccc ccccc ccccc ccccc
%f  0.0000000  0.000000000  0.00000000000  0.000000000000000
%f  0.0000000  0.000000000  0.00000000000  0.000000000000000
%i    0    0    0    0      0      0      0      0         0
%i    0    0    0    0      0      0      0      0         0
/*      NGA, ST. LOUIS,MO.                                  
/*   EPHEMERIS COMPUTED FROM  3 DAYS OF DATA                
/* CCCCCCCCCCCCCCCCCCCCCCCCCCCCCCCCCCCCCCCCCCCCCCCCCCCCCCCCC
/* CCCCCCCCCCCCCCCCCCCCCCCCCCCCCCCCCCCCCCCCCCCCCCCCCCCCCCCCC
*  2007 12 24  3  0   .00000000                                                 
P  1 -19578.622262 -17810.162563  -2436.778153    174.472666                    
V  1  -1047.119079  -3659.902061  32160.846013       .023116                    
P  2  14099.856130   7798.234123 -21338.684287    160.720574                    
V  2  -6041.850141  25990.012716   5236.980443       .029248                    
P  3 -23387.553203  -8658.683515   9372.696745    162.611730                    
V  3  -7791.720765  -9956.828218 -27564.298644       .054323                    
P  4   7975.399375  18920.134738 -16733.418450    -41.196658                    
V  4  -7139.781538  20175.938375  19876.412086      -.053248                    
P  5  17733.950798 -16271.066931 -11338.207508    612.427303                    
V  5  14152.129802  -2661.116987  26710.044246       .192410                    
P  6   2366.226026 -17290.521338 -19835.834883    179.417970                    
V  6  20456.216031  15605.882533 -11087.179618      -.132331                    
P  7  -1815.859516 -18839.057750 -18292.777370     -6.604506                    
V  7  19896.004167  13578.923774 -15701.942728       .374047                    
P  8    923.601236  23912.033893  10905.834512   -134.488851                    
V  8  -5945.598472  13006.220011 -28228.409581      -.013659                    
P  9  13721.654492 -16047.763214  15388.381823    102.408840                    
V  9  -1727.679882  20750.192678  22474.646371       .017592                    
P 10  24904.141194    -59.732117  -9817.738667   -183.427318                    
V 10 -11135.870638   5346.310190 -28315.455328      -.121691                    
P 11 -12350.538671  18297.347012  14406.476616     26.731519                    
V 11  -3038.131948 -19021.907039  21671.250644       .001100                    
P 12  22459.045046 -12161.501652  -7065.356209   -352.282594                    
V 12   9490.302607   -158.782849  30126.934260      -.010881                    
P 13   -601.126703  17695.513113 -19910.004172    229.833824                    
V 13 -18162.028907 -17141.480648 -14735.637459       .023660                    
P 14 -14052.441676 -21107.375483   8166.358952   -310.906840                    
V 14   8485.168840   5863.545590  30041.467712       .027989                    
P 15  19280.267013     42.842858  18288.977258    -70.814068                    
V 15  16156.898083  16699.086765 -17114.621096       .004407                    
P 16 -22516.197114  -3308.078284 -13765.024427    129.886454                    
V 16  16244.824290  -6866.333408 -24625.104258       .011679                    
P 17  13527.989221  21188.229109   8820.799318     45.901812                    
V 17  -9835.591746  -5790.677100  28908.601975      -.008676                    
P 18   7003.893118 -16471.423608  19681.683699   -217.237564                    
V 18  24288.853577  -5075.512965 -13347.095061       .026125                    
P 19 -19093.291122  -1095.895931  18579.416903     13.500099                    
V 19 -15057.585305 -17938.280257 -16449.807456       .017632                    
P 20 -20427.208857  13997.918827  -9647.712636    123.930159                    
V 20 -12414.605848   1095.489116  28227.973103      -.007057                    
P 21   5131.285367 -25673.313772   1838.417072     74.791871                    
V 21   4470.013142  -1136.723739 -31500.293299      -.005969                    
P 22  -8173.659564 -13724.683502  21384.245289    205.679276                    
V 22  25805.793202  -7327.341069   5161.214787       .005711                    
P 23 -12575.979645   8680.749518 -21804.994688    320.488838                    
V 23 -20039.861280 -18809.892823   3855.500079       .031574                    
P 24  12818.380798 -21425.531060  -9295.483221     56.481067                    
V 24   -763.758343  12221.763299 -28383.152232       .032231                    
P 25  -6618.971037  25271.160595  -4873.137089    493.989650                    
V 25  -1758.975601  -6897.573381 -30891.588153       .037348                    
P 26  20108.283277   4887.040097  16505.292391    134.871211                    
V 26  14535.424506  15947.879021 -21295.815581       .111959                    
P 27  -2827.530338  26266.073159   2023.267088    156.177770                    
V 27  -2991.311179   1317.327975 -31894.036255       .024961                    
P 28   5242.349035  14442.959401  22030.736368    -12.554653                    
V 28 -26083.615450   7376.034579   1050.092653      -.006671                    
P 30  12629.074946 -16959.181095 -16345.193816     57.259836                    
V 30  19750.259517  -4804.919619  20766.125247       .014400                    
P 31  -9017.240423 -17030.964507 -18034.416120     -2.586666                    
V 31   6570.183866 -22449.932463  17792.897964      -.015269                    
P 32 -16881.263417  -9289.255445  18670.487673    180.939332                    
V 32  21961.334093  -6243.540326  17333.843830       .116041                    
EOF
